#cP2022  4 11 12  0  0.00000000     576 d+D   IGb14 EXT AIUB
## 2205 129600.00000000   300.00000000 59680 0.5000000000000
+   77   G01G02G03G04G05G06G07G08G09G10G11G12G13G14G15G16G17
+        G18G19G20G21G22G23G24G25G26G27G28G29G30G31G32R01R02
+        R03R04R05R07R08R09R12R13R14R15R17R18R19R20R21R22R24
+        E01E02E03E04E05E07E08E09E10E11E12E13E14E15E18E19E21
+        E24E25E26E27E30E31E33E34E36  0  0  0  0  0  0  0  0
++         9  7  6  7  7  8  7  6  6  6  8  7  7  7  7  7  7
++         9  7  7  7  7  6  7  6  6  5  7  7  6  7  6  7  6
++         6  6  7  7  6  7  8  8  8  8  8  7  8  9  8  8  8
++         6  6  5  6  6  7  6  6  8  7  7  6  6  6  6  7  7
++         6  6  6  6  6  6  6  6  6  0  0  0  0  0  0  0  0
%c M  cc GPS ccc cccc cccc cccc cccc ccccc ccccc ccccc ccccc
%c cc cc ccc ccc cccc cccc cccc cccc ccccc ccccc ccccc ccccc
%f  1.2500000  1.025000000  0.00000000000  0.000000000000000
%f  0.0000000  0.000000000  0.00000000000  0.000000000000000
%i    0    0    0    0      0      0      0      0         0
%i    0    0    0    0      0      0      0      0         0
/* Center for Orbit Determination in Europe (CODE)          
/* Ultra-rapid GRE orbits starting year-day 22101 12 hour   
/* Observed/predicted: 24/24 hours (data used up to 102L)   
/* PCV:IGS14      OL/AL:FES2014b NONE     YN ORB:CoN CLK:BRD
*  2022  4 13  3 45  0.00000000
PG01 -12287.316828  21588.499280  -9171.834221    386.296657               P   P
PG02  20085.319308 -13152.088126 -10857.568471   -653.076065               P   P
PG03  -5659.195565  14022.984927 -21932.439171   -204.386477               P   P
PG04  -2456.873052  23465.022434 -12104.629949   -176.353708               P   P
PG05  20905.563978  -6687.219842  14901.502625    -78.106774               P   P
PG06  16346.499288   2608.361220 -20725.911748    264.802078               P   P
PG07   2523.663503  17843.936950  19741.022927    320.009081               P   P
PG08  -8582.452721  16220.603297  19034.195463    -63.716338               P   P
PG09   6664.427765  25598.205358  -2265.980146   -344.060888               P   P
PG10 -22013.842614 -11760.294370   9645.612722   -377.486248               P   P
PG11  21847.913588 -10597.855689 -10753.444401    -41.227157               P   P
PG12  10374.045500 -12198.709898 -21436.713078   -199.525306               P   P
PG13  13626.294298  -7543.500339  21340.275192    293.236095               P   P
PG14  20803.770606  13124.464898  10119.726625   -102.075779               P   P
PG15   6646.473921 -17864.051136  17961.937097    -69.360757               P   P
PG16 -23916.008637    638.253132  11741.663402   -491.076562               P   P
PG17  13398.538097  18574.217399 -12978.870605    599.658695               P   P
PG18  -1205.364701 -17914.444553  19529.599677    196.849903               P   P
PG19  15055.873018  12127.509208 -18562.195295    143.665393               P   P
PG20  25625.378844  -2541.306835   5977.833408    515.850649               P   P
PG21 -17882.656920  18973.844235   3153.107109    160.390291               P   P
PG22 -15621.997160  -9102.783250 -19108.039218    242.511045               P   P
PG23 -12799.960079 -15067.133803  17774.771198    -14.518421               P   P
PG24  13548.841731 -22213.003242  -4381.555495    257.268044               P   P
PG25  -5116.689327 -16166.500588 -20794.456670    311.239035               P   P
PG26 -26361.592933  -4418.159807    242.261352    198.202731               P   P
PG27 -14407.647149   3681.062366  21803.233181    181.672606               P   P
PG28  24431.915718   9897.857502   2475.745176    371.844913               P   P
PG29  -3624.925579 -26081.595348  -3268.560915   -502.449562               P   P
PG30  10556.218136  11755.428014  21419.927967   -523.500613               P   P
PG31 -18512.873959   -610.527501 -19329.173434   -173.174867               P   P
PG32 -15670.603560 -15728.069501 -14573.494636   -104.287637               P   P
PR01  -5531.737549  10030.156717 -22785.430029      7.762735               P   P
PR02  10389.394101  19824.252332 -12131.137064    515.379954               P   P
PR03  18682.344148  16581.606077   5080.051394     54.842981               P   P
PR04  16237.060950   4366.898231  19212.881345    136.454092               P   P
PR05   4973.718096 -10356.006365  22793.409395     91.069623               P   P
PR07 -18779.887379 -16334.459317  -5645.091703     33.773482               P   P
PR08 -16274.400926  -4218.582430 -19130.546282    -64.550899               P   P
PR09  -1356.158114 -11285.036599 -22823.441594     49.480233               P   P
PR12 -16928.811386  11482.073165  15273.743022     17.883256               P   P
PR13    -33.807011  11287.424471  22855.693162    -20.772219               P   P
PR14  18419.867667   4151.285254  17165.996061     76.426193               P   P
PR15  24957.698269  -5035.046652   1583.360027     96.889213               P   P
PR17   7007.318857  10936.424388 -21954.153293    517.070040               P   P
PR18  12234.852275  -6833.126398 -21316.918728    113.385979               P   P
PR19  11937.539287 -19951.052294 -10500.940106   -185.208983               P   P
PR20   3645.193451 -23310.193210   9763.855875    -68.544508               P   P
PR21  -7568.672065  -9457.706097  22442.627658   -292.885740               P   P
PR22 -12314.944096   7519.264943  20989.475028   -176.525177               P   P
PR24  -2510.850014  23203.106473 -10288.984190     88.839294               P   P
PE01 -20883.531026 -13337.592635 -16200.507243   -615.324835               P   P
PE02  21003.228059  13264.594731  16075.853087    292.476263               P   P
PE03  16802.063440  22841.211223   8521.192980   -547.436064               P   P
PE04 -19227.484324  -5140.689697 -21898.677899  -1005.370286               P   P
PE05   4437.539225  27452.037740 -10137.795540   -191.349987               P   P
PE07  10342.169410 -16024.460273  22645.326430   -658.054497               P   P
PE08  19077.540362   4770.946925  22133.881062   -511.416952               P   P
PE09 -10020.944618  16187.721111 -22660.361374   -482.396078               P   P
PE10 -21506.922747  14949.694209  13777.892809   -506.368410               P   P
PE11 -19172.699714  22151.116188   4138.301594   3973.394443               P   P
PE12 -20470.267628   5563.602133  20631.515518   4665.585914               P   P
PE13  19386.652991 -21849.826354  -4831.242891    427.989811               P   P
PE14  20303.538670  16617.431087 -19124.335485  -1812.142094               P   P
PE15  20374.084944  -5533.400225 -20747.994706    752.007417               P   P
PE18 -14487.311842 -12206.045353  13835.037141  -1571.056316               P   P
PE19 -15634.308182 -24331.858282  -6296.496542  -2923.587201               P   P
PE21  -1487.911127 -16799.732097 -24330.641371   -728.126340               P   P
PE24 -21056.406290  10166.387622  18148.559482   -558.006535               P   P
PE25   1162.901464  16782.132167  24355.281020   -570.205943               P   P
PE26   6224.783642 -25019.558677  14549.590123  -1023.966880               P   P
PE27  19941.053996 -10878.474563 -18973.709498   -275.004143               P   P
PE30  29472.210584   2180.414027  -1527.508413   -426.341884               P   P
PE31 -29465.212234  -1393.324585   2499.316764   -494.984952               P   P
PE33  -9330.939582 -13993.603294  24362.732803   -457.653557               P   P
PE34   9526.972582  13788.663738 -24404.144332   -511.761898               P   P
PE36  -7017.374759  25213.603608 -13810.468063   -358.912870               P   P
EOF
